[{"OBJECT_NAME":"STARLINK-34749","OBJECT_ID":"2025-211Z","EPOCH":"2026-03-09T16:00:18.794016","MEAN_MOTION":15.05648009,"ECCENTRICITY":9.926e-5,"INCLINATION":97.6041,"RA_OF_ASC_NODE":114.1235,"ARG_OF_PERICENTER":160.2549,"MEAN_ANOMALY":199.8716,"EPHEMERIS_TYPE":0,"CLASSIFICATION_TYPE":"U","NORAD_CAT_ID":65675,"ELEMENT_SET_NO":999,"REV_AT_EPOCH":2704,"BSTAR":9.1968073e-5,"MEAN_MOTION_DOT":1.266e-5,"MEAN_MOTION_DDOT":0},{"OBJECT_NAME":"COSMOS 2084","OBJECT_ID":"1990-055A","EPOCH":"2026-03-09T23:42:10.320480","MEAN_MOTION":15.05654003,"ECCENTRICITY":0.00170188,"INCLINATION":62.7921,"RA_OF_ASC_NODE":334.5624,"ARG_OF_PERICENTER":190.1371,"MEAN_ANOMALY":169.9389,"EPHEMERIS_TYPE":0,"CLASSIFICATION_TYPE":"U","NORAD_CAT_ID":20663,"ELEMENT_SET_NO":999,"REV_AT_EPOCH":93636,"BSTAR":0.00023056361,"MEAN_MOTION_DOT":3.154e-5,"MEAN_MOTION_DDOT":0}]
